[{"OBJECT_NAME":"GENMAT-1","OBJECT_ID":"2023-174W","EPOCH":"2026-03-09T18:03:23.351040","MEAN_MOTION":15.32594666,"ECCENTRICITY":0.00074416,"INCLINATION":97.3728,"RA_OF_ASC_NODE":146.8236,"ARG_OF_PERICENTER":169.2515,"MEAN_ANOMALY":190.8888,"EPHEMERIS_TYPE":0,"CLASSIFICATION_TYPE":"U","NORAD_CAT_ID":58276,"ELEMENT_SET_NO":999,"REV_AT_EPOCH":12973,"BSTAR":0.00042157222,"MEAN_MOTION_DOT":0.0001321,"MEAN_MOTION_DDOT":0},{"OBJECT_NAME":"STARLINK-33764","OBJECT_ID":"2025-071T","EPOCH":"2026-03-09T11:41:26.787840","MEAN_MOTION":15.30193252,"ECCENTRICITY":0.00012085,"INCLINATION":53.1574,"RA_OF_ASC_NODE":141.1988,"ARG_OF_PERICENTER":82.0317,"MEAN_ANOMALY":278.0821,"EPHEMERIS_TYPE":0,"CLASSIFICATION_TYPE":"U","NORAD_CAT_ID":63510,"ELEMENT_SET_NO":999,"REV_AT_EPOCH":5271,"BSTAR":0.0008423566,"MEAN_MOTION_DOT":0.00024667,"MEAN_MOTION_DDOT":0}]
